ORBCOMM FM20            
1 25416U 98046D   25301.22198209  .00001426  00000+0  51860-3 0  9994
2 25416  44.9943 271.1252 0002737 286.6475  73.4073 14.37516230423409
ORBCOMM FM16            
1 25417U 98046E   25302.44444721  .00002138  00000+0  72677-3 0  9993
2 25417  44.9926 255.0939 0005891 273.4217  86.5958 14.39339397423592
ORBCOMM FM15            
1 25418U 98046F   25301.20456495  .00001816  00000+0  62889-3 0  9994
2 25418  44.9963 266.5336 0005676 268.6997  91.3202 14.38963852423408
ORBCOMM FM14            
1 25419U 98046G   25301.18772024  .00001873  00000+0  64220-3 0  9995
2 25419  44.9952 264.4548 0004470 270.1572  89.8764 14.39362649423376
ORBCOMM FM13            
1 25420U 98046H   25301.21185536  .00001749  00000+0  61897-3 0  9996
2 25420  44.9975 273.6441 0006071 247.6367 112.3838 14.38030326422384
ORBCOMM FM21            
1 25475U 98053A   25302.50101054  .00001279  00000+0  46865-3 0  9996
2 25475  45.0096 353.3030 0003057 223.0209 137.0400 14.37653889416571
ORBCOMM FM22            
1 25476U 98053B   25302.50682661  .00001561  00000+0  54902-3 0  9990
2 25476  45.0087 347.0075 0004419 210.5902 149.4690 14.38792133416615
ORBCOMM FM23            
1 25477U 98053C   25302.48325426  .00001444  00000+0  52100-3 0  9999
2 25477  45.0097 355.3060 0003723 209.9886 150.0750 14.37875489416725
